HST                     
1 20580U 90037B   26168.14321654  .00005620  00000+0  17616-3 0  9999
2 20580  28.4720  80.8753 0001815 141.8279 218.2446 15.30747004788560
POLAR                   
1 23802U 96013A   26167.26675754  .00000137  00000+0  00000+0 0  9997
2 23802  79.8528 227.0631 6469542 209.1106  89.7802  1.29846135144846
SWAS                    
1 25560U 98071A   26168.67829904  .00002278  00000+0  14776-3 0  9997
2 25560  69.8946 226.2529 0008648 259.6664 100.3525 15.09628390497340
CXO                     
1 25867U 99040B   26169.37713324  .00000529  00000+0  00000+0 0  9998
2 25867  56.2189 116.5542 7835469 310.3049   0.1821  0.37804062 17322
XMM-NEWTON              
1 25989U 99066A   26169.34668136 -.00000002  00000+0  00000+0 0  9995
2 25989  64.4794 282.9700 4673195  64.9038   0.0897  0.50127427 23010
TERRA                   
1 25994U 99068A   26168.84974205  .00000309  00000+0  71898-4 0  9991
2 25994  97.9456 218.3697 0001631 187.1264 288.8317 14.61103577409709
CLUSTER II-FM7 (SAMBA)  
1 26410U 00041A   26168.13893488  .00013373  00000+0  00000+0 0  9990
2 26410 149.9159  50.9864 9054007 268.1291 359.6411  0.44868040 20307
CLUSTER II-FM8 (TANGO)  
1 26464U 00045B   26166.18760269  .00011725  00000+0  00000+0 0  9995
2 26464 150.1504  51.7507 9057004 268.7261   2.8044  0.44418308 20307
ODIN                    
1 26702U 01007A   26168.66594885  .00157293  00000+0  10017-2 0  9996
2 26702  97.3824 209.6389 0006523 142.4970 217.6751 15.75945231389474
TIMED                   
1 26998U 01055B   26168.61031794  .00000816  00000+0  77646-4 0  9997
2 26998  74.0674 234.1665 0001141 334.8915  25.2214 14.95295414330883
CORIOLIS                
1 27640U 03001A   26168.61997156  .00000070  00000+0  53497-4 0  9998
2 27640  98.7125 175.4981 0013402 207.4543 152.5927 14.19944857214283
SORCE                   
1 27651U 03004A   26168.73728088  .00002050  00000+0  15749-3 0  9999
2 27651  39.9903 258.5400 0016393  53.3403 306.8896 15.03715505271989
MOST                    
1 27843U 03031D   26168.63366581  .00000038  00000+0  37521-4 0  9994
2 27843  98.7044 176.3534 0008742 249.0252 110.9990 14.21322552190772
SCISAT 1                
1 27858U 03036A   26168.42822494  .00000383  00000+0  53593-4 0  9992
2 27858  73.9283 170.8638 0008538 240.6549 119.3775 14.81447732231483
SWIFT                   
1 28485U 04047A   26166.40597521  .00042527  00000+0  35480-3 0  9998
2 28485  20.5516 198.6409 0001619 255.9834 104.0432 15.68175033186589
HINODE (SOLAR-B)        
1 29479U 06041A   26168.66229435  .00000513  00000+0  96583-4 0  9995
2 29479  98.0547 184.8078 0016001 288.1134  71.8328 14.68623570 54940
SHIJIAN-6 02A (SJ-6 02A)
1 29505U 06046A   26168.81719134  .00003054  00000+0  15829-3 0  9993
2 29505  97.6353 209.8883 0004460 122.2733 237.8933 15.16945126 72361
SHIJIAN-6 02B (SJ-6 02B)
1 29506U 06046B   26168.87951167  .00000933  00000+0  76912-4 0  9998
2 29506  97.7153 197.9339 0015400  58.4353 301.8373 15.01378209 70845
FGRST (GLAST)           
1 33053U 08029A   26168.49049940  .00002189  00000+0  74437-4 0  9993
2 33053  25.5804 202.3766 0007799 332.9313  27.0818 15.23947405995887
SDO                     
1 36395U 10005A   26168.41002763 -.00000096  00000+0  00000+0 0  9992
2 36395  34.6527  86.3378 0001734  44.0102 180.8312  1.00269958 60061
CRYOSAT 2               
1 36508U 10013A   26168.83963027  .00000186  00000+0  45384-4 0  9990
2 36508  92.0356 277.4600 0002150  89.8889 270.2564 14.51899373858178
X-SAT                   
1 37389U 11015C   26168.85737389 -.00000044  00000+0 -12782-5 0  9995
2 37389  98.3509 145.8488 0013878 346.6312  13.4499 14.25205775787770
GCOM-W1 (SHIZUKU)       
1 38337U 12025A   26168.78764198  .00000352  00000+0  88065-4 0  9997
2 38337  98.2021 109.3341 0001785  74.8287 343.7058 14.57125058749127
NUSTAR                  
1 38358U 12031A   26168.91668980  .00008832  00000+0  49157-3 0  9993
2 38358   6.0276  28.6571 0007174 124.5076 337.2185 15.08804646  1308
NEOSSAT                 
1 39089U 13009D   26168.48826107  .00000106  00000+0  51265-4 0  9990
2 39089  98.4177 348.5137 0009902 242.7674 117.2503 14.35826502696781
BRITE-AUSTRIA           
1 39091U 13009F   26168.41708634  .00000131  00000+0  59167-4 0  9997
2 39091  98.3994 347.8470 0009161 235.6981 124.3339 14.36542205697087
IRIS                    
1 39197U 13033A   26168.50158638  .00000759  00000+0  93167-4 0  9998
2 39197  97.9328   7.7776 0023526 320.7787  39.1722 14.85885670700424
HISAKI (SPRINT-A)       
1 39253U 13049A   26167.83421073  .00000116  00000+0  71628-4 0  9994
2 39253  29.7184 221.8078 0136864  13.9892 346.4420 13.55544715631376
CASSIOPE                
1 39265U 13055A   26168.81808515  .00044002 -50921-6  47993-3 0  9997
2 39265  80.9141  65.9560 0292536  60.3279 302.6736 15.25243540667765
STSAT-3                 
1 39422U 13066G   26168.91181274  .00002975  00000+0  22676-3 0  9990
2 39422  97.6225 138.7884 0011168  43.0582 317.1515 15.02761148684311
SWARM B                 
1 39451U 13067A   26168.78851538  .00002783  00000+0  98950-4 0  9991
2 39451  87.7439 342.1336 0003268  85.7092 274.4530 15.28554566683339
